GLOBALSTAR M075         
1 37192U 10054E   25276.59075860 -.00000089  00000+0  81558-4 0  9992
2 37192  51.9939 211.4718 0000570  63.4779 107.1091 12.62268241689536
GLOBALSTAR M073         
1 37193U 10054F   25276.64144589 -.00000070  00000+0  19040-3 0  9990
2 37193  52.0038 125.2205 0000823  98.1840 302.1852 12.62263265691533
GLOBALSTAR M083         
1 37739U 11033A   25276.58538104 -.00000079  00000+0  13709-3 0  9992
2 37739  51.9854  73.9694 0000947 103.6198 342.8865 12.62276556660548
GLOBALSTAR M088         
1 37740U 11033B   25276.57257119 -.00000071  00000+0  18172-3 0  9998
2 37740  52.0236 339.8189 0000518  94.2883  52.9552 12.62268337656083
GLOBALSTAR M091         
1 37741U 11033C   25276.51007370 -.00000069  00000+0  19613-3 0  9993
2 37741  52.0001 303.3528 0000560  90.7721  73.3500 12.62260240656867
GLOBALSTAR M085         
1 37742U 11033D   25276.65687147 -.00000088  00000+0  89762-4 0  9999
2 37742  52.0115 253.9729 0000627  79.7810  91.4206 12.62265293657393
GLOBALSTAR M081         
1 37743U 11033E   25276.36540255 -.00000086  00000+0  98514-4 0  9999
2 37743  51.9946 257.5893 0000431  92.7213  72.7968 12.62268895657502
GLOBALSTAR M089         
1 37744U 11033F   25276.56452711 -.00000098  00000+0  33973-4 0  9992
2 37744  51.9921 211.1892 0000400  44.3430 127.2355 12.62267412658377
